{
  "schema_version": 8,
  "id": "builtin-dwarf-planets",
  "name": "Dwarf Planets",
  "epoch": "2026-06-14 00:00:00 TDB, JPL Horizons, solar-system barycentric",
  "description": "Built-in Dwarf Planets preset using SI units, JPL Horizons solar-system barycentric state vectors, heliocentric osculating orbital metadata, and curated physical metadata.",
  "groups": [
    {
      "id": "dwarf-planets-group",
      "name": "Dwarf Planets",
      "kind": "planetary_system",
      "body_ids": [
        "sun"
      ]
    }
  ],
  "bodies": [
    {
      "id": "gonggong",
      "name": "Gonggong",
      "kind": "dwarf planet",
      "mass_kg": 1.75e+21,
      "radius_m": 615000.0,
      "position_m": [
        12227589152734.35,
        -5560606510767.8125,
        -180791058609.5099
      ],
      "velocity_mps": [
        1770.678812944699,
        1411.01851942067,
        1188.6245856844312
      ],
      "color": "#a84d3f",
      "parent_id": "sun",
      "orbit": {
        "semi_major_axis_m": 10003097000261.941,
        "orbital_period_s": 17255429416.65951,
        "eccentricity": 0.5042719977833178,
        "inclination_deg": 30.89956439643503,
        "longitude_of_ascending_node_deg": 336.8382905485527,
        "argument_of_periapsis_deg": 206.6238050558804,
        "mean_anomaly_deg": 111.6700412638307,
        "epoch": "2026-06-14 00:00:00 TDB",
        "reference_plane": "J2000 ecliptic",
        "approximation_notes": "Horizons heliocentric osculating elements at the preset epoch; the committed Cartesian state remains the simulation seed."
      },
      "data_source": {
        "source_name": "JPL Horizons",
        "source_url": "https://ssd.jpl.nasa.gov/api/horizons.api?format=json&COMMAND=%27225088%3B%27&OBJ_DATA=NO&MAKE_EPHEM=YES&EPHEM_TYPE=ELEMENTS&CENTER=%27500%4010%27&TLIST=%272026-06-14+00%3A00%3A00%27&TLIST_TYPE=CAL&TIME_TYPE=TDB&OUT_UNITS=AU-D&CSV_FORMAT=YES&ELM_LABELS=NO",
        "catalog_id": "225088;",
        "retrieved_at": "2026-06-14",
        "citation": "JPL Horizons osculating elements and state vectors."
      }
    },
    {
      "id": "quaoar",
      "name": "Quaoar",
      "kind": "dwarf planet",
      "mass_kg": 1.212e+21,
      "radius_m": 548800.0,
      "position_m": [
        1230028599809.3591,
        -6192641116522.786,
        885562136422.6289
      ],
      "velocity_mps": [
        4483.851597048599,
        1040.374147394773,
        -46.7651809233216
      ],
      "color": "#bca18a",
      "parent_id": "sun",
      "orbit": {
        "semi_major_axis_m": 6456179046617.2,
        "orbital_period_s": 8947205250.97395,
        "eccentricity": 0.03519052499784354,
        "inclination_deg": 7.991581691992865,
        "longitude_of_ascending_node_deg": 188.9180647313013,
        "argument_of_periapsis_deg": 163.1745712651313,
        "mean_anomaly_deg": 292.8997673069669,
        "epoch": "2026-06-14 00:00:00 TDB",
        "reference_plane": "J2000 ecliptic",
        "approximation_notes": "Horizons heliocentric osculating elements at the preset epoch; the committed Cartesian state remains the simulation seed."
      },
      "data_source": {
        "source_name": "JPL Horizons",
        "source_url": "https://ssd.jpl.nasa.gov/api/horizons.api?format=json&COMMAND=%2750000%3B%27&OBJ_DATA=NO&MAKE_EPHEM=YES&EPHEM_TYPE=ELEMENTS&CENTER=%27500%4010%27&TLIST=%272026-06-14+00%3A00%3A00%27&TLIST_TYPE=CAL&TIME_TYPE=TDB&OUT_UNITS=AU-D&CSV_FORMAT=YES&ELM_LABELS=NO",
        "catalog_id": "50000;",
        "retrieved_at": "2026-06-14",
        "citation": "JPL Horizons osculating elements and state vectors."
      }
    },
    {
      "id": "orcus",
      "name": "Orcus",
      "kind": "dwarf planet",
      "mass_kg": 5.48e+20,
      "radius_m": 455000.0,
      "position_m": [
        -6571456332739.366,
        1485404328446.469,
        -2478827352653.429
      ],
      "velocity_mps": [
        -635.563130385982,
        -3736.640803928783,
        -203.7391287076662
      ],
      "color": "#a9b0b6",
      "parent_id": "sun",
      "orbit": {
        "semi_major_axis_m": 5890811193108.131,
        "orbital_period_s": 7798062403.963317,
        "eccentricity": 0.2205023914273854,
        "inclination_deg": 20.55686695172571,
        "longitude_of_ascending_node_deg": 268.4062272203838,
        "argument_of_periapsis_deg": 73.56352233560804,
        "mean_anomaly_deg": 189.123176774634,
        "epoch": "2026-06-14 00:00:00 TDB",
        "reference_plane": "J2000 ecliptic",
        "approximation_notes": "Horizons heliocentric osculating elements at the preset epoch; the committed Cartesian state remains the simulation seed."
      },
      "data_source": {
        "source_name": "JPL Horizons",
        "source_url": "https://ssd.jpl.nasa.gov/api/horizons.api?format=json&COMMAND=%2790482%3B%27&OBJ_DATA=NO&MAKE_EPHEM=YES&EPHEM_TYPE=ELEMENTS&CENTER=%27500%4010%27&TLIST=%272026-06-14+00%3A00%3A00%27&TLIST_TYPE=CAL&TIME_TYPE=TDB&OUT_UNITS=AU-D&CSV_FORMAT=YES&ELM_LABELS=NO",
        "catalog_id": "90482;",
        "retrieved_at": "2026-06-14",
        "citation": "JPL Horizons osculating elements and state vectors."
      }
    }
  ]
}
